CCSDS_CDM_VERS = 1.0
COMMENT Example CDM for the orbit-formats round-trip golden
CREATION_DATE = 2010-03-12T22:31:12.000
ORIGINATOR = JSPOC
MESSAGE_FOR = SATELLITE A
MESSAGE_ID = 20110309014427561

COMMENT Relative metadata and data
TCA = 2010-03-13T22:37:52.618
MISS_DISTANCE = 715.0 [m]
RELATIVE_SPEED = 14762.0 [m/s]
RELATIVE_POSITION_R = 27.4 [m]
RELATIVE_POSITION_T = -70.2 [m]
RELATIVE_POSITION_N = 711.8 [m]
RELATIVE_VELOCITY_R = -7.2 [m/s]
RELATIVE_VELOCITY_T = -14692.0 [m/s]
RELATIVE_VELOCITY_N = -1437.2 [m/s]
START_SCREEN_PERIOD = 2010-03-12T18:29:32
STOP_SCREEN_PERIOD = 2010-03-15T18:29:32
SCREEN_VOLUME_FRAME = RTN
SCREEN_VOLUME_SHAPE = ELLIPSOID
SCREEN_VOLUME_X = 200.0 [m]
SCREEN_VOLUME_Y = 1000.0 [m]
SCREEN_VOLUME_Z = 1000.0 [m]
SCREEN_ENTRY_TIME = 2010-03-13T22:37:32
SCREEN_EXIT_TIME = 2010-03-13T22:38:12
COLLISION_PROBABILITY = 4.35e-05
COLLISION_PROBABILITY_METHOD = FOSTER-1992

COMMENT Object1 metadata, OD parameters, state, and covariance
OBJECT = OBJECT1
OBJECT_DESIGNATOR = 12345
CATALOG_NAME = SATCAT
OBJECT_NAME = SATELLITE A
INTERNATIONAL_DESIGNATOR = 1997-030E
OBJECT_TYPE = PAYLOAD
OPERATOR_CONTACT_POSITION = OSA
OPERATOR_ORGANIZATION = EUMETSAT
OPERATOR_PHONE = +49615130312
OPERATOR_EMAIL = JOHN.DOE@SOMEWHERE.NET
EPHEMERIS_NAME = EPHEMERIS SATELLITE A
COVARIANCE_METHOD = CALCULATED
MANEUVERABLE = NO
REF_FRAME = EME2000
GRAVITY_MODEL = EGM-96: 36D 36O
ATMOSPHERIC_MODEL = JACCHIA 70 DCA
N_BODY_PERTURBATIONS = MOON, SUN
SOLAR_RAD_PRESSURE = NO
EARTH_TIDES = NO
INTRACK_THRUST = NO
TIME_LASTOB_START = 2010-03-12T02:14:12.746
TIME_LASTOB_END = 2010-03-12T02:14:12.746
RECOMMENDED_OD_SPAN = 7.88 [d]
ACTUAL_OD_SPAN = 5.5 [d]
OBS_AVAILABLE = 592
OBS_USED = 579
TRACKS_AVAILABLE = 123
TRACKS_USED = 119
RESIDUALS_ACCEPTED = 97.8 [%]
WEIGHTED_RMS = 0.864
AREA_PC = 4.5 [m**2]
MASS = 251.6 [kg]
CD_AREA_OVER_MASS = 0.045663 [m**2/kg]
CR_AREA_OVER_MASS = 0.0 [m**2/kg]
THRUST_ACCELERATION = 0.0 [m/s**2]
SEDR = 4.5457e-05 [W/kg]
X = 2570.097065 [km]
Y = 2244.654904 [km]
Z = 6281.497978 [km]
X_DOT = 4.418769571 [km/s]
Y_DOT = 4.833547743 [km/s]
Z_DOT = -3.526774327 [km/s]
CR_R = 41.42 [m**2]
CT_R = -8.579 [m**2]
CT_T = 2533.0 [m**2]
CN_R = -23.13 [m**2]
CN_T = 13.36 [m**2]
CN_N = 70.98 [m**2]
CRDOT_R = 0.00252 [m**2/s]
CRDOT_T = -5.476 [m**2/s]
CRDOT_N = 0.0008626 [m**2/s]
CRDOT_RDOT = 0.005744 [m**2/s**2]
CTDOT_R = -0.01006 [m**2/s]
CTDOT_T = 0.004041 [m**2/s]
CTDOT_N = -0.001359 [m**2/s]
CTDOT_RDOT = -1.502e-05 [m**2/s**2]
CTDOT_TDOT = 1.049e-05 [m**2/s**2]
CNDOT_R = 0.001053 [m**2/s]
CNDOT_T = -0.003412 [m**2/s]
CNDOT_N = 0.001213 [m**2/s]
CNDOT_RDOT = -3.004e-06 [m**2/s**2]
CNDOT_TDOT = -1.091e-06 [m**2/s**2]
CNDOT_NDOT = 5.529e-06 [m**2/s**2]

COMMENT Object2 metadata, state, and covariance
OBJECT = OBJECT2
OBJECT_DESIGNATOR = 30337
CATALOG_NAME = SATCAT
OBJECT_NAME = FENGYUN 1C DEB
INTERNATIONAL_DESIGNATOR = 1999-025AA
OBJECT_TYPE = DEBRIS
EPHEMERIS_NAME = NONE
COVARIANCE_METHOD = CALCULATED
MANEUVERABLE = N/A
REF_FRAME = EME2000
X = 2569.5408 [km]
Y = 2245.093614 [km]
Z = 6281.599946 [km]
X_DOT = -2.8886125 [km/s]
Y_DOT = -6.007247516 [km/s]
Z_DOT = 3.328770172 [km/s]
CR_R = 1337.0 [m**2]
CT_R = -715.0 [m**2]
CT_T = 4041.0 [m**2]
CN_R = -323.1 [m**2]
CN_T = 139.7 [m**2]
CN_N = 873.2 [m**2]
CRDOT_R = 0.006111 [m**2/s]
CRDOT_T = -0.00122 [m**2/s]
CRDOT_N = -0.001232 [m**2/s]
CRDOT_RDOT = 1.515e-05 [m**2/s**2]
CTDOT_R = -0.001165 [m**2/s]
CTDOT_T = 0.004483 [m**2/s]
CTDOT_N = 0.001107 [m**2/s]
CTDOT_RDOT = -8.972e-06 [m**2/s**2]
CTDOT_TDOT = 9.626e-06 [m**2/s**2]
CNDOT_R = 0.001404 [m**2/s]
CNDOT_T = -0.002058 [m**2/s]
CNDOT_N = 0.001973 [m**2/s]
CNDOT_RDOT = -4.616e-06 [m**2/s**2]
CNDOT_TDOT = -2.336e-06 [m**2/s**2]
CNDOT_NDOT = 7.26e-06 [m**2/s**2]
